{
  "type": "FeatureCollection",
  "features": [
    {
      "type": "Feature",
      "properties": {
        "norad_id": 34492,
        "name": "IRIDIUM 33 DEB",
        "group": "iridium-33-debris",
        "lat": -63.681857458938545,
        "lon": 158.47951680349365,
        "alt_km": 697.5807988331744,
        "timestamp": "2025-12-20T22:39:11.009538+00:00",
        "meta_object_name": "IRIDIUM 33 DEB",
        "meta_object_id": "1997-051GH",
        "meta_epoch": "2025-12-19T10:45:18.347328",
        "meta_mean_motion": 14.25846982,
        "meta_eccentricity": 0.0188646,
        "meta_inclination": 86.4707,
        "meta_ra_of_asc_node": 331.9164,
        "meta_arg_of_pericenter": 216.3823,
        "meta_mean_anomaly": 273.3437,
        "meta_ephemeris_type": 0,
        "meta_classification_type": "U",
        "meta_norad_cat_id": 34492,
        "meta_element_set_no": 999,
        "meta_rev_at_epoch": 85154,
        "meta_bstar": 0.0022012,
        "meta_mean_motion_dot": 6.332e-05,
        "meta_mean_motion_ddot": 0,
        "tle_line1": "1 34492U 97051GH  25353.44812902  .00006332  00000+0  22012-2 0  9994",
        "tle_line2": "2 34492  86.4707 331.9164 0188646 216.3823 273.3437 14.25846982851542"
      },
      "geometry": {
        "type": "Point",
        "coordinates": [
          158.47951680349365,
          -63.681857458938545
        ]
      }
    },
    {
      "type": "Feature",
      "properties": {
        "norad_id": 34497,
        "name": "IRIDIUM 33 DEB",
        "group": "iridium-33-debris",
        "lat": 10.395002242462787,
        "lon": -131.7874644556655,
        "alt_km": 846.6987464446029,
        "timestamp": "2025-12-20T22:39:11.009552+00:00",
        "meta_object_name": "IRIDIUM 33 DEB",
        "meta_object_id": "1997-051GN",
        "meta_epoch": "2025-12-19T10:35:53.025216",
        "meta_mean_motion": 14.2747197,
        "meta_eccentricity": 0.0078309,
        "meta_inclination": 86.2774,
        "meta_ra_of_asc_node": 49.5385,
        "meta_arg_of_pericenter": 317.619,
        "meta_mean_anomaly": 57.0969,
        "meta_ephemeris_type": 0,
        "meta_classification_type": "U",
        "meta_norad_cat_id": 34497,
        "meta_element_set_no": 999,
        "meta_rev_at_epoch": 86979,
        "meta_bstar": 0.00044435,
        "meta_mean_motion_dot": 1.145e-05,
        "meta_mean_motion_ddot": 0,
        "tle_line1": "1 34497U 97051GN  25353.44158594  .00001145  00000+0  44435-3 0  9990",
        "tle_line2": "2 34497  86.2774  49.5385 0078309 317.6190  57.0969 14.27471970869798"
      },
      "geometry": {
        "type": "Point",
        "coordinates": [
          -131.7874644556655,
          10.395002242462787
        ]
      }
    },
    {
      "type": "Feature",
      "properties": {
        "norad_id": 34508,
        "name": "IRIDIUM 33 DEB",
        "group": "iridium-33-debris",
        "lat": -67.09988576940977,
        "lon": 90.52471843428532,
        "alt_km": 810.2348249986726,
        "timestamp": "2025-12-20T22:39:11.009567+00:00",
        "meta_object_name": "IRIDIUM 33 DEB",
        "meta_object_id": "1997-051GZ",
        "meta_epoch": "2025-12-20T06:16:29.290368",
        "meta_mean_motion": 14.38479962,
        "meta_eccentricity": 0.006658,
        "meta_inclination": 86.371,
        "meta_ra_of_asc_node": 99.4548,
        "meta_arg_of_pericenter": 148.8,
        "meta_mean_anomaly": 211.7177,
        "meta_ephemeris_type": 0,
        "meta_classification_type": "U",
        "meta_norad_cat_id": 34508,
        "meta_element_set_no": 999,
        "meta_rev_at_epoch": 87417,
        "meta_bstar": 0.00083303,
        "meta_mean_motion_dot": 2.629e-05,
        "meta_mean_motion_ddot": 0,
        "tle_line1": "1 34508U 97051GZ  25354.26145012  .00002629  00000+0  83303-3 0  9990",
        "tle_line2": "2 34508  86.3710  99.4548 0066580 148.8000 211.7177 14.38479962874178"
      },
      "geometry": {
        "type": "Point",
        "coordinates": [
          90.52471843428532,
          -67.09988576940977
        ]
      }
    },
    {
      "type": "Feature",
      "properties": {
        "norad_id": 34521,
        "name": "IRIDIUM 33 DEB",
        "group": "iridium-33-debris",
        "lat": 54.21947458895774,
        "lon": -158.10516149524557,
        "alt_km": 676.0640341668031,
        "timestamp": "2025-12-20T22:39:11.009583+00:00",
        "meta_object_name": "IRIDIUM 33 DEB",
        "meta_object_id": "1997-051HN",
        "meta_epoch": "2025-12-20T13:52:33.220992",
        "meta_mean_motion": 14.63425265,
        "meta_eccentricity": 0.00025181,
        "meta_inclination": 86.3788,
        "meta_ra_of_asc_node": 27.0969,
        "meta_arg_of_pericenter": 181.0734,
        "meta_mean_anomaly": 179.0473,
        "meta_ephemeris_type": 0,
        "meta_classification_type": "U",
        "meta_norad_cat_id": 34521,
        "meta_element_set_no": 999,
        "meta_rev_at_epoch": 88587,
        "meta_bstar": 0.0005204938,
        "meta_mean_motion_dot": 2.713e-05,
        "meta_mean_motion_ddot": 0,
        "tle_line1": "1 34521U 97051HN  25354.57816228  .00002713  00000+0  52049-3 0  9990",
        "tle_line2": "2 34521  86.3788  27.0969 0002518 181.0734 179.0473 14.63425265885875"
      },
      "geometry": {
        "type": "Point",
        "coordinates": [
          -158.10516149524557,
          54.21947458895774
        ]
      }
    },
    {
      "type": "Feature",
      "properties": {
        "norad_id": 34525,
        "name": "IRIDIUM 33 DEB",
        "group": "iridium-33-debris",
        "lat": 60.1867796537222,
        "lon": 49.69883628695464,
        "alt_km": 738.6551380744595,
        "timestamp": "2025-12-20T22:39:11.009599+00:00",
        "meta_object_name": "IRIDIUM 33 DEB",
        "meta_object_id": "1997-051HS",
        "meta_epoch": "2025-12-20T04:21:41.244768",
        "meta_mean_motion": 14.42921764,
        "meta_eccentricity": 0.00064705,
        "meta_inclination": 86.3721,
        "meta_ra_of_asc_node": 43.6672,
        "meta_arg_of_pericenter": 78.1419,
        "meta_mean_anomaly": 345.8375,
        "meta_ephemeris_type": 0,
        "meta_classification_type": "U",
        "meta_norad_cat_id": 34525,
        "meta_element_set_no": 999,
        "meta_rev_at_epoch": 88195,
        "meta_bstar": 0.00024009823,
        "meta_mean_motion_dot": 8.22e-06,
        "meta_mean_motion_ddot": 0,
        "tle_line1": "1 34525U 97051HS  25354.18172737  .00000822  00000+0  24010-3 0  9997",
        "tle_line2": "2 34525  86.3721  43.6672 0006470  78.1419 345.8375 14.42921764881959"
      },
      "geometry": {
        "type": "Point",
        "coordinates": [
          49.69883628695464,
          60.1867796537222
        ]
      }
    },
    {
      "type": "Feature",
      "properties": {
        "norad_id": 34529,
        "name": "IRIDIUM 33 DEB",
        "group": "iridium-33-debris",
        "lat": -67.36934770340781,
        "lon": -139.31048501314854,
        "alt_km": 764.1584628209703,
        "timestamp": "2025-12-20T22:39:11.009614+00:00",
        "meta_object_name": "IRIDIUM 33 DEB",
        "meta_object_id": "1997-051HW",
        "meta_epoch": "2025-12-20T03:10:13.579104",
        "meta_mean_motion": 14.40621204,
        "meta_eccentricity": 0.00056835,
        "meta_inclination": 86.3633,
        "meta_ra_of_asc_node": 32.2604,
        "meta_arg_of_pericenter": 154.9999,
        "meta_mean_anomaly": 205.1477,
        "meta_ephemeris_type": 0,
        "meta_classification_type": "U",
        "meta_norad_cat_id": 34529,
        "meta_element_set_no": 999,
        "meta_rev_at_epoch": 88248,
        "meta_bstar": 8.3294871e-05,
        "meta_mean_motion_dot": 2.86e-06,
        "meta_mean_motion_ddot": 0,
        "tle_line1": "1 34529U 97051HW  25354.13210161  .00000286  00000+0  83295-4 0  9995",
        "tle_line2": "2 34529  86.3633  32.2604 0005683 154.9999 205.1477 14.40621204882489"
      },
      "geometry": {
        "type": "Point",
        "coordinates": [
          -139.31048501314854,
          -67.36934770340781
        ]
      }
    },
    {
      "type": "Feature",
      "properties": {
        "norad_id": 34538,
        "name": "IRIDIUM 33 DEB",
        "group": "iridium-33-debris",
        "lat": 34.783488770673635,
        "lon": 179.3692022469874,
        "alt_km": 768.149769159254,
        "timestamp": "2025-12-20T22:39:11.009630+00:00",
        "meta_object_name": "IRIDIUM 33 DEB",
        "meta_object_id": "1997-051JF",
        "meta_epoch": "2025-12-20T05:54:09.537408",
        "meta_mean_motion": 14.42688568,
        "meta_eccentricity": 0.00321834,
        "meta_inclination": 86.2759,
        "meta_ra_of_asc_node": 2.2678,
        "meta_arg_of_pericenter": 302.109,
        "meta_mean_anomaly": 180.5468,
        "meta_ephemeris_type": 0,
        "meta_classification_type": "U",
        "meta_norad_cat_id": 34538,
        "meta_element_set_no": 999,
        "meta_rev_at_epoch": 87864,
        "meta_bstar": 0.00064183465,
        "meta_mean_motion_dot": 2.166e-05,
        "meta_mean_motion_ddot": 0,
        "tle_line1": "1 34538U 97051JF  25354.24594372  .00002166  00000+0  64183-3 0  9999",
        "tle_line2": "2 34538  86.2759   2.2678 0032183 302.1090 180.5468 14.42688568878646"
      },
      "geometry": {
        "type": "Point",
        "coordinates": [
          179.3692022469874,
          34.783488770673635
        ]
      }
    }
  ]
}